GLOBALSTAR M024         
1 25883U 99043A   25085.61786573 -.00000085  00000+0 -72237-3 0  9992
2 25883  51.9996 206.9273 0000747 333.3489  39.9216 11.10162099105698
GLOBALSTAR M027         
1 25884U 99043B   25085.49609764 -.00000056  00000+0  28109-3 0  9991
2 25884  52.0203 282.8447 0020925 216.1812 143.7566 11.04371604132101
GLOBALSTAR M054         
1 25885U 99043C   25085.40985597 -.00000074  00000+0 -64332-4 0  9994
2 25885  52.0141  64.2217 0006172  32.2753 129.2592 11.39211471109610
GLOBALSTAR M053         
1 25886U 99043D   25085.48562453 -.00000056  00000+0  38084-3 0  9998
2 25886  52.0025   6.5490 0003106 308.9108 222.1807 11.27663764110117
GLOBALSTAR M058         
1 25907U 99049A   25085.37608433 -.00000110  00000+0 -35059-3 0  9996
2 25907  51.9962 330.3041 0002725 103.1509 256.9630 11.93195921531658
GLOBALSTAR M050         
1 25908U 99049B   25085.12805108 -.00000016  00000+0  81070-3 0  9996
2 25908  52.0025 344.8467 0008488 223.7710 309.2029 12.07450874138157
GLOBALSTAR M033         
1 25909U 99049C   25085.62147065 -.00000109  00000+0 -16359-3 0  9995
2 25909  51.9900 221.0245 0014242  94.8475 265.3998 12.20287869525668
GLOBALSTAR M055         
1 25910U 99049D   25085.49290202 -.00000072  00000+0  18664-3 0  9993
2 25910  52.0006 236.1617 0006295 324.0453  35.9974 12.29424125158116
